start=new Date('2023-06-02T00:00:00.000Z').valueOf();
sats=[{"RCS_SIZE":"LARGE","DECAY_DATE":null,"TLE_LINE2":"2 51750  53.2154 173.6690 0000982  89.6554 270.4551 15.08835007 71995","NORAD_CAT_ID":"51750","ECCENTRICITY":"0.00009820","PERIAPSIS":"539.081","MEAN_ANOMALY":"270.4551","BSTAR":"0.00007290900000","OBJECT_ID":"2022-016AN","RA_OF_ASC_NODE":"173.6690","MEAN_MOTION":"15.08835007","EPOCH":"2023-06-01T08:29:34.310112","CENTER_NAME":"EARTH","GP_ID":"232974465","MEAN_MOTION_DOT":"0.00000873","SEMIMAJOR_AXIS":"6917.896","REV_AT_EPOCH":"7199","CLASSIFICATION_TYPE":"U","COUNTRY_CODE":"US","OBJECT_NAME":"STARLINK-3505","ELEMENT_SET_NO":"999","FILE":"3922681","TIME_SYSTEM":"UTC","PERIOD":"95.438","ARG_OF_PERICENTER":"89.6554","MEAN_MOTION_DDOT":"0.0000000000000","REF_FRAME":"TEME","EPHEMERIS_TYPE":"0","TLE_LINE1":"1 51750U 22016AN  23152.35386933  .00000873  00000-0  72909-4 0  9991","OBJECT_TYPE":"PAYLOAD","MEAN_ELEMENT_THEORY":"SGP4","INCLINATION":"53.2154","LAUNCH_DATE":"2022-02-21","APOAPSIS":"540.440","SITE":"AFETR"},{"REF_FRAME":"TEME","MEAN_ELEMENT_THEORY":"SGP4","OBJECT_TYPE":"PAYLOAD","EPHEMERIS_TYPE":"0","TLE_LINE1":"1 51751U 22016AP  23152.36491479  .00000490  00000-0  48897-4 0  9999","APOAPSIS":"540.527","SITE":"AFETR","LAUNCH_DATE":"2022-02-21","INCLINATION":"53.2154","OBJECT_NAME":"STARLINK-3506","COUNTRY_CODE":"US","CLASSIFICATION_TYPE":"U","MEAN_MOTION_DDOT":"0.0000000000000","TIME_SYSTEM":"UTC","ELEMENT_SET_NO":"999","FILE":"3922681","ARG_OF_PERICENTER":"74.4839","PERIOD":"95.438","EPOCH":"2023-06-01T08:45:28.637856","MEAN_MOTION":"15.08834005","RA_OF_ASC_NODE":"173.6206","CENTER_NAME":"EARTH","OBJECT_ID":"2022-016AP","MEAN_MOTION_DOT":"0.00000490","REV_AT_EPOCH":"7198","SEMIMAJOR_AXIS":"6917.899","GP_ID":"232974067","TLE_LINE2":"2 51751  53.2154 173.6206 0001103  74.4839 285.6275 15.08834005 71980","ECCENTRICITY":"0.00011030","NORAD_CAT_ID":"51751","RCS_SIZE":"LARGE","DECAY_DATE":null,"BSTAR":"0.00004889700000","PERIAPSIS":"539.001","MEAN_ANOMALY":"285.6275"},{"PERIAPSIS":"539.016","MEAN_ANOMALY":"271.4672","BSTAR":"0.00005466400000","DECAY_DATE":null,"RCS_SIZE":"LARGE","TLE_LINE2":"2 51752  53.2151 173.6836 0001060  88.6441 271.4672 15.08838710 70873","ECCENTRICITY":"0.00010600","NORAD_CAT_ID":"51752","GP_ID":"232962371","MEAN_MOTION_DOT":"0.00000582","REV_AT_EPOCH":"7087","SEMIMAJOR_AXIS":"6917.884","OBJECT_ID":"2022-016AQ","MEAN_MOTION":"15.08838710","EPOCH":"2023-06-01T08:24:16.248384","RA_OF_ASC_NODE":"173.6836","CENTER_NAME":"EARTH","TIME_SYSTEM":"UTC","FILE":"3922365","ELEMENT_SET_NO":"999","ARG_OF_PERICENTER":"88.6441","PERIOD":"95.438","MEAN_MOTION_DDOT":"0.0000000000000","CLASSIFICATION_TYPE":"U","COUNTRY_CODE":"US","OBJECT_NAME":"STARLINK-3511","LAUNCH_DATE":"2022-02-21","INCLINATION":"53.2151","APOAPSIS":"540.483","SITE":"AFETR","REF_FRAME":"TEME","OBJECT_TYPE":"PAYLOAD","MEAN_ELEMENT_THEORY":"SGP4","TLE_LINE1":"1 51752U 22016AQ  23152.35018806  .00000582  00000-0  54664-4 0  9999","EPHEMERIS_TYPE":"0"},{"MEAN_MOTION":"15.08836947","EPOCH":"2023-06-01T06:59:29.282496","RA_OF_ASC_NODE":"173.9509","CENTER_NAME":"EARTH","OBJECT_ID":"2022-016AR","MEAN_MOTION_DOT":"-0.00000065","REV_AT_EPOCH":"7086","SEMIMAJOR_AXIS":"6917.890","GP_ID":"232963122","TLE_LINE2":"2 51753  53.2157 173.9509 0001221 101.8826 258.2303 15.08836947 70867","ECCENTRICITY":"0.00012210","NORAD_CAT_ID":"51753","RCS_SIZE":"LARGE","DECAY_DATE":null,"BSTAR":"0.00001398100000","PERIAPSIS":"538.910","MEAN_ANOMALY":"258.2303","REF_FRAME":"TEME","MEAN_ELEMENT_THEORY":"SGP4","OBJECT_TYPE":"PAYLOAD","EPHEMERIS_TYPE":"0","TLE_LINE1":"1 51753U 22016AR  23152.29131114 -.00000065  00000-0  13981-4 0  9995","APOAPSIS":"540.599","SITE":"AFETR","LAUNCH_DATE":"2022-02-21","INCLINATION":"53.2157","COUNTRY_CODE":"US","OBJECT_NAME":"STARLINK-3507","CLASSIFICATION_TYPE":"U","MEAN_MOTION_DDOT":"0.0000000000000","TIME_SYSTEM":"UTC","FILE":"3922365","ELEMENT_SET_NO":"999","ARG_OF_PERICENTER":"101.8826","PERIOD":"95.438"},{"MEAN_MOTION_DDOT":"0.0000000000000","ARG_OF_PERICENTER":"86.2445","PERIOD":"95.438","TIME_SYSTEM":"UTC","FILE":"3922681","ELEMENT_SET_NO":"999","COUNTRY_CODE":"US","CLASSIFICATION_TYPE":"U","OBJECT_NAME":"STARLINK-3457","SITE":"AFETR","APOAPSIS":"540.465","LAUNCH_DATE":"2022-02-21","INCLINATION":"53.2153","OBJECT_TYPE":"PAYLOAD","MEAN_ELEMENT_THEORY":"SGP4","EPHEMERIS_TYPE":"0","TLE_LINE1":"1 51754U 22016AS  23152.32071952  .00000968  00000-0  78922-4 0  9990","REF_FRAME":"TEME","BSTAR":"0.00007892200000","MEAN_ANOMALY":"273.8666","PERIAPSIS":"539.029","ECCENTRICITY":"0.00010380","NORAD_CAT_ID":"51754","TLE_LINE2":"2 51754  53.2153 173.5756 0001038  86.2445 273.8666 15.08839393 71980","RCS_SIZE":"LARGE","DECAY_DATE":null,"REV_AT_EPOCH":"7198","SEMIMAJOR_AXIS":"6917.882","MEAN_MOTION_DOT":"0.00000968","GP_ID":"232974463","CENTER_NAME":"EARTH","EPOCH":"2023-06-01T07:41:50.166528","MEAN_MOTION":"15.08839393","RA_OF_ASC_NODE":"173.5756","OBJECT_ID":"2022-016AS"},{"MEAN_ANOMALY":"265.2953","PERIAPSIS":"538.807","BSTAR":"-0.00007127100000","RCS_SIZE":"LARGE","DECAY_DATE":null,"ECCENTRICITY":"0.00013280","NORAD_CAT_ID":"51755","TLE_LINE2":"2 51755  53.2154 174.0003 0001328  94.8191 265.2953 15.08846487 71973","GP_ID":"232974068","REV_AT_EPOCH":"7197","SEMIMAJOR_AXIS":"6917.861","MEAN_MOTION_DOT":"-0.00001422","OBJECT_ID":"2022-016AT","CENTER_NAME":"EARTH","MEAN_MOTION":"15.08846487","EPOCH":"2023-06-01T06:43:35.646816","RA_OF_ASC_NODE":"174.0003","ARG_OF_PERICENTER":"94.8191","PERIOD":"95.437","TIME_SYSTEM":"UTC","FILE":"3922681","ELEMENT_SET_NO":"999","MEAN_MOTION_DDOT":"0.0000000000000","CLASSIFICATION_TYPE":"U","COUNTRY_CODE":"US","OBJECT_NAME":"STARLINK-3460","LAUNCH_DATE":"2022-02-21","INCLINATION":"53.2154","SITE":"AFETR","APOAPSIS":"540.644","OBJECT_TYPE":"PAYLOAD","MEAN_ELEMENT_THEORY":"SGP4","EPHEMERIS_TYPE":"0","TLE_LINE1":"1 51755U 22016AT  23152.28027369 -.00001422  00000-0 -71271-4 0  9997","REF_FRAME":"TEME"},{"GP_ID":"232962872","SEMIMAJOR_AXIS":"6917.885","REV_AT_EPOCH":"7088","MEAN_MOTION_DOT":"0.00001190","OBJECT_ID":"2022-016AU","CENTER_NAME":"EARTH","RA_OF_ASC_NODE":"173.5389","EPOCH":"2023-06-01T09:11:58.093728","MEAN_MOTION":"15.08838518","MEAN_ANOMALY":"272.2215","PERIAPSIS":"539.043","BSTAR":"0.00009282100000","DECAY_DATE":null,"RCS_SIZE":"LARGE","NORAD_CAT_ID":"51756","ECCENTRICITY":"0.00010220","TLE_LINE2":"2 51756  53.2155 173.5389 0001022  87.8895 272.2215 15.08838518 70884","INCLINATION":"53.2155","LAUNCH_DATE":"2022-02-21","SITE":"AFETR","APOAPSIS":"540.457","EPHEMERIS_TYPE":"0","TLE_LINE1":"1 51756U 22016AU  23152.38331127  .00001190  00000-0  92821-4 0  9993","MEAN_ELEMENT_THEORY":"SGP4","OBJECT_TYPE":"PAYLOAD","REF_FRAME":"TEME","PERIOD":"95.438","ARG_OF_PERICENTER":"87.8895","FILE":"3922365","ELEMENT_SET_NO":"999","TIME_SYSTEM":"UTC","MEAN_MOTION_DDOT":"0.0000000000000","OBJECT_NAME":"STARLINK-3513","COUNTRY_CODE":"US","CLASSIFICATION_TYPE":"U"},{"TLE_LINE2":"2 51757  53.2157 173.5622 0000883  86.0861 274.0232 15.08838656 70887","NORAD_CAT_ID":"51757","ECCENTRICITY":"0.00008830","RCS_SIZE":"LARGE","DECAY_DATE":null,"BSTAR":"0.00009020800000","PERIAPSIS":"539.139","MEAN_ANOMALY":"274.0232","RA_OF_ASC_NODE":"173.5622","EPOCH":"2023-06-01T09:08:02.737536","MEAN_MOTION":"15.08838656","CENTER_NAME":"EARTH","OBJECT_ID":"2022-016AV","MEAN_MOTION_DOT":"0.00001148","SEMIMAJOR_AXIS":"6917.884","REV_AT_EPOCH":"7088","GP_ID":"232963623","OBJECT_NAME":"STARLINK-3459","COUNTRY_CODE":"US","CLASSIFICATION_TYPE":"U","MEAN_MOTION_DDOT":"0.0000000000000","FILE":"3922365","ELEMENT_SET_NO":"999","TIME_SYSTEM":"UTC","PERIOD":"95.438","ARG_OF_PERICENTER":"86.0861","REF_FRAME":"TEME","EPHEMERIS_TYPE":"0","TLE_LINE1":"1 51757U 22016AV  23152.38058724  .00001148  00000-0  90208-4 0  9993","OBJECT_TYPE":"PAYLOAD","MEAN_ELEMENT_THEORY":"SGP4","APOAPSIS":"540.360","SITE":"AFETR","INCLINATION":"53.2157","LAUNCH_DATE":"2022-02-21"},{"REF_FRAME":"TEME","TLE_LINE1":"1 51758U 22016AW  23152.37226287  .00001721  00000-0  12620-3 0  9992","EPHEMERIS_TYPE":"0","MEAN_ELEMENT_THEORY":"SGP4","OBJECT_TYPE":"PAYLOAD","APOAPSIS":"540.467","SITE":"AFETR","INCLINATION":"53.2165","LAUNCH_DATE":"2022-02-21","COUNTRY_CODE":"US","CLASSIFICATION_TYPE":"U","OBJECT_NAME":"STARLINK-3458","MEAN_MOTION_DDOT":"0.0000000000000","ELEMENT_SET_NO":"999","FILE":"3922365","TIME_SYSTEM":"UTC","PERIOD":"95.438","ARG_OF_PERICENTER":"86.5906","RA_OF_ASC_NODE":"173.5437","EPOCH":"2023-06-01T08:56:03.511968","MEAN_MOTION":"15.08840454","CENTER_NAME":"EARTH","OBJECT_ID":"2022-016AW","MEAN_MOTION_DOT":"0.00001721","SEMIMAJOR_AXIS":"6917.879","REV_AT_EPOCH":"7202","GP_ID":"232963368","TLE_LINE2":"2 51758  53.2165 173.5437 0001045  86.5906 273.5205 15.08840454 72028","NORAD_CAT_ID":"51758","ECCENTRICITY":"0.00010450","RCS_SIZE":"LARGE","DECAY_DATE":null,"BSTAR":"0.00012620000000","PERIAPSIS":"539.021","MEAN_ANOMALY":"273.5205"},{"GP_ID":"232974073","SEMIMAJOR_AXIS":"6917.920","REV_AT_EPOCH":"7201","MEAN_MOTION_DOT":"0.00000029","OBJECT_ID":"2022-016AX","CENTER_NAME":"EARTH","RA_OF_ASC_NODE":"173.5725","MEAN_MOTION":"15.08827154","EPOCH":"2023-06-01T09:01:23.316384","MEAN_ANOMALY":"269.4151","PERIAPSIS":"539.085","BSTAR":"0.00001991600000","RCS_SIZE":"LARGE","DECAY_DATE":null,"NORAD_CAT_ID":"51759","ECCENTRICITY":"0.00010110","TLE_LINE2":"2 51759  53.2159 173.5725 0001011  90.6957 269.4151 15.08827154 72012","INCLINATION":"53.2159","LAUNCH_DATE":"2022-02-21","SITE":"AFETR","APOAPSIS":"540.484","EPHEMERIS_TYPE":"0","TLE_LINE1":"1 51759U 22016AX  23152.37596431  .00000029  00000-0  19916-4 0  9990","MEAN_ELEMENT_THEORY":"SGP4","OBJECT_TYPE":"PAYLOAD","REF_FRAME":"TEME","PERIOD":"95.438","ARG_OF_PERICENTER":"90.6957","FILE":"3922681","ELEMENT_SET_NO":"999","TIME_SYSTEM":"UTC","MEAN_MOTION_DDOT":"0.0000000000000","CLASSIFICATION_TYPE":"U","COUNTRY_CODE":"US","OBJECT_NAME":"STARLINK-3456"}];
